NIMIQ 2                 
1 27632U 02062A   26181.63617785 -.00000065  00000+0  00000+0 0  9991
2 27632   9.4754  56.7543 0005746  38.5602 303.2282  1.00272170 44319
USA 167                 
1 27691U 03008A   26181.60686983  .00000007  00000+0  00000+0 0  9995
2 27691  10.9863  43.2869 0003710 320.7424  11.4284  1.00272500  6901
USA 169 (MILSTAR-2 4)   
1 27711U 03012A   26181.40461566 -.00000247  00000+0  00000+0 0  9996
2 27711  12.3684  29.7319 0100455   9.9194 176.6393  1.00271944 33089
ASIASAT 4               
1 27718U 03014A   26181.55124969 -.00000216  00000+0  00000+0 0  9990
2 27718   4.7374  75.5806 0002835  28.2964 160.7134  1.00269862 45434
HELLAS-SAT 2            
1 27811U 03020A   26181.44186808 -.00000079  00000+0  00000+0 0  9996
2 27811   7.3859  67.7269 0003195  52.5204 307.3077  1.00272323 42975
THURAYA-2               
1 27825U 03026A   26181.73776998  .00000130  00000+0  00000+0 0  9991
2 27825   8.8605  31.9158 0002583  17.9211 178.6022  1.00275104 84489
OPTUS C1                
1 27831U 03028B   26181.54769503 -.00000146  00000+0  00000+0 0  9991
2 27831   6.9213  69.2495 0005770  25.9498 176.3506  1.00271885 53193
USA 170                 
1 27875U 03040A   26179.94637637  .00000128  00000+0  00000+0 0  9995
2 27875  10.5240  47.8365 0002382  64.6735 169.3974  1.00272204 33117
GALAXY 13 (HORIZONS-1)  
1 27954U 03044A   26181.69933904  .00000142  00000+0  00000+0 0  9994
2 27954   1.4534  83.6929 0001688  10.3255 286.4785  1.00271423 46709
YAMAL 202               
1 28089U 03053A   26181.63548345 -.00000075  00000+0  00000+0 0  9995
2 28089   6.3767  70.7754 0003240  20.5875 219.6481  1.00271575 82834
UFO 11 (USA 174)        
1 28117U 03057A   26181.67269604 -.00000099  00000+0  00000+0 0  9999
2 28117   8.9469  33.7602 0002451  77.8527 124.8992  1.00272108 82585
USA 176 (DSP 22)        
1 28158U 04004A   26181.43415471 -.00000292  00000+0  00000+0 0  9991
2 28158  12.0792  25.9702 0000954 322.1130  37.4477  1.00272503 33066
ABS-4 (MOBISAT-1)       
1 28184U 04007A   26181.17085527  .00000045  00000+0  00000+0 0  9994
2 28184   6.0735  71.8502 0004495  26.4536 302.4105  1.00269634 52460
INTELSAT 10-02          
1 28358U 04022A   26181.37244097 -.00000001  00000+0  00000+0 0  9998
2 28358   0.0351 275.6747 0000206 207.3639 288.4805  1.00270426 80682
ANIK F2                 
1 28378U 04027A   26181.60173163 -.00000042  00000+0  00000+0 0  9991
2 28378   3.3203  79.2758 0004258  18.2692 286.6239  1.00272501 41397
AMC-15                  
1 28446U 04041A   26181.59958123 -.00000078  00000+0  00000+0 0  9997
2 28446   0.0140   8.4145 0002519  89.4870 291.5620  1.00272002 79438
NSS-10                  
1 28526U 05003A   26181.50778737 -.00000246  00000+0  00000+0 0  9994
2 28526   6.4811  70.2937 0003113  24.5014 329.1295  1.00271305 53285
INMARSAT 4-F1           
1 28628U 05009A   26181.62997161  .00000040  00000+0  00000+0 0  9991
2 28628   5.1844  42.7724 0003015  54.7588 226.0698  1.00272803 77800
DIRECTV 8               
1 28659U 05019A   26181.60496458  .00000012  00000+0  00000+0 0  9996
2 28659   0.0176 337.8440 0003356 127.6381 271.9265  1.00272164 77201
GALAXY 28 (G-28)        
1 28702U 05022A   26181.79503918 -.00000192  00000+0  00000+0 0  9999
2 28702   3.3321  78.7720 0002607  13.3341  85.8695  1.00271766 52114
THAICOM 4               
1 28786U 05028A   26181.82403115 -.00000352  00000+0  00000+0 0  9997
2 28786   0.2791  85.7120 0001976   0.8376 248.4977  1.00271284 52386
ANIK F1R                
1 28868U 05036A   26181.70783242 -.00000068  00000+0  00000+0 0  9990
2 28868   4.3455  76.4170 0004401  11.4863 338.3865  1.00272143 46581
SYRACUSE 3A             
1 28885U 05041B   26181.80957293  .00000136  00000+0  00000+0 0  9990
2 28885   4.6761  75.6705 0002764  20.1787 161.1238  1.00273948 75885
INMARSAT 4-F2           
1 28899U 05044A   26181.47267169 -.00000253  00000+0  00000+0 0  9998
2 28899   5.1102  43.6668 0003301  44.9568 143.5693  1.00270981 75655
METEOSAT-9 (MSG-2)      
1 28912U 05049B   26181.73820330  .00000127  00000+0  00000+0 0  9992
2 28912   9.3903  54.0333 0001827   1.4312 174.9175  1.00279300  7132
EUTELSAT 174A           
1 28924U 05052A   26181.63142257  .00000017  00000+0  00000+0 0  9991
2 28924   4.2517  76.3671 0006542  21.0443 222.6357  1.00275366 52461
ECHOSTAR 10             
1 28935U 06003A   26181.70722574 -.00000045  00000+0  00000+0 0  9996
2 28935   0.0360 305.1442 0001902 114.9613   3.0802  1.00272244 74594
SPAINSAT                
1 28945U 06007A   26181.31068481 -.00000207  00000+0  00000+0 0  9998
2 28945   0.5957  86.3392 0005099  11.8989 261.8144  1.00270569 74351
JCSAT-5A                
1 29045U 06010A   26181.82654448 -.00000318  00000+0  00000+0 0  9997
2 29045   1.1434  84.0933 0002214   8.3698 256.0206  1.00269957 73904
ASTRA 1KR               
1 29055U 06012A   26181.80416729  .00000129  00000+0  00000+0 0  9995
2 29055   0.5074  83.2296 0003775   8.8104 135.3201  1.00270825 45832
GALAXY 16 (G-16)        
1 29236U 06023A   26181.59677559 -.00000116  00000+0  00000+0 0  9991
2 29236   0.0088  67.2795 0002760  26.4720 300.7511  1.00273181 73103
EUTELSAT 33F            
1 29270U 06032A   26181.80694065  .00000165  00000+0  00000+0 0  9997
2 29270   1.6951  82.1040 0003757  15.3403 144.9914  1.00272093 47442
