OBJECT_NAME,OBJECT_ID,EPOCH,MEAN_MOTION,ECCENTRICITY,INCLINATION,RA_OF_ASC_NODE,ARG_OF_PERICENTER,MEAN_ANOMALY,EPHEMERIS_TYPE,CLASSIFICATION_TYPE,NORAD_CAT_ID,ELEMENT_SET_NO,REV_AT_EPOCH,BSTAR,MEAN_MOTION_DOT,MEAN_MOTION_DDOT
NIMIQ 2,2002-062A,2026-06-30T15:16:05.766240,1.00272170,.0005746,9.4754,56.7543,38.5602,303.2282,0,U,27632,999,4431,0,-.65E-6,0
USA 167,2003-008A,2026-06-30T14:33:53.553312,1.00272500,.000371,10.9863,43.2869,320.7424,11.4284,0,U,27691,999,690,0,.7E-7,0
USA 169 (MILSTAR-2 4),2003-012A,2026-06-30T09:42:38.793024,1.00271944,.01004553,12.3684,29.7319,9.9194,176.6393,0,U,27711,999,3308,0,-.247E-5,0
ASIASAT 4,2003-014A,2026-06-30T13:13:47.973216,1.00269862,.00028354,4.7374,75.5806,28.2964,160.7134,0,U,27718,999,4543,0,-.216E-5,0
HELLAS-SAT 2,2003-020A,2026-06-30T10:36:17.402112,1.00272323,.00031955,7.3859,67.7269,52.5204,307.3077,0,U,27811,999,4297,0,-.79E-6,0
THURAYA-2,2003-026A,2026-06-30T17:42:23.326272,1.00275104,.0002583,8.8605,31.9158,17.9211,178.6022,0,U,27825,999,8448,0,.13E-5,0
OPTUS C1,2003-028B,2026-06-30T13:08:40.850592,1.00271885,.00057709,6.9213,69.2495,25.9498,176.3506,0,U,27831,999,5319,0,-.146E-5,0
USA 170,2003-040A,2026-06-28T22:42:46.918368,1.00272204,.00023828,10.5240,47.8365,64.6735,169.3974,0,U,27875,999,3311,0,.128E-5,0
GALAXY 13 (HORIZONS-1),2003-044A,2026-06-30T16:47:02.893056,1.00271423,.0001688,1.4534,83.6929,10.3255,286.4785,0,U,27954,999,4670,0,.142E-5,0
YAMAL 202,2003-053A,2026-06-30T15:15:05.770080,1.00271575,.000324,6.3767,70.7754,20.5875,219.6481,0,U,28089,999,8283,0,-.75E-6,0
UFO 11 (USA 174),2003-057A,2026-06-30T16:08:40.937856,1.00272108,.0002451,8.9469,33.7602,77.8527,124.8992,0,U,28117,999,8258,0,-.99E-6,0
USA 176 (DSP 22),2004-004A,2026-06-30T10:25:10.966944,1.00272503,.00009545,12.0792,25.9702,322.1130,37.4477,0,U,28158,999,3306,0,-.292E-5,0
ABS-4 (MOBISAT-1),2004-007A,2026-06-30T04:06:01.895328,1.00269634,.00044956,6.0735,71.8502,26.4536,302.4105,0,U,28184,999,5246,0,.45E-6,0
INTELSAT 10-02,2004-022A,2026-06-30T08:56:18.899808,1.00270426,.00002061,0.0351,275.6747,207.3639,288.4805,0,U,28358,999,8068,0,-.1E-7,0
ANIK F2,2004-027A,2026-06-30T14:26:29.612832,1.00272501,.0004258,3.3203,79.2758,18.2692,286.6239,0,U,28378,999,4139,0,-.42E-6,0
AMC-15,2004-041A,2026-06-30T14:23:23.818272,1.00272002,.0002519,0.0140,8.4145,89.4870,291.5620,0,U,28446,999,7943,0,-.78E-6,0
NSS-10,2005-003A,2026-06-30T12:11:12.828768,1.00271305,.00031134,6.4811,70.2937,24.5014,329.1295,0,U,28526,999,5328,0,-.246E-5,0
INMARSAT 4-F1,2005-009A,2026-06-30T15:07:09.547104,1.00272803,.0003015,5.1844,42.7724,54.7588,226.0698,0,U,28628,999,7780,0,.4E-6,0
DIRECTV 8,2005-019A,2026-06-30T14:31:08.939712,1.00272164,.0003356,0.0176,337.8440,127.6381,271.9265,0,U,28659,999,7720,0,.12E-6,0
GALAXY 28 (G-28),2005-022A,2026-06-30T19:04:51.385152,1.00271766,.0002607,3.3321,78.7720,13.3341,85.8695,0,U,28702,999,5211,0,-.192E-5,0
THAICOM 4,2005-028A,2026-06-30T19:46:36.291360,1.00271284,.0001976,0.2791,85.7120,0.8376,248.4977,0,U,28786,999,5238,0,-.352E-5,0
ANIK F1R,2005-036A,2026-06-30T16:59:16.721088,1.00272143,.0004401,4.3455,76.4170,11.4863,338.3865,0,U,28868,999,4658,0,-.68E-6,0
SYRACUSE 3A,2005-041B,2026-06-30T19:25:47.101152,1.00273948,.0002764,4.6761,75.6705,20.1787,161.1238,0,U,28885,999,7588,0,.136E-5,0
INMARSAT 4-F2,2005-044A,2026-06-30T11:20:38.834016,1.00270981,.00033014,5.1102,43.6668,44.9568,143.5693,0,U,28899,999,7565,0,-.253E-5,0
METEOSAT-9 (MSG-2),2005-049B,2026-06-30T17:43:00.765120,1.00279300,.0001827,9.3903,54.0333,1.4312,174.9175,0,U,28912,999,713,0,.127E-5,0
EUTELSAT 174A,2005-052A,2026-06-30T15:09:14.910048,1.00275366,.0006542,4.2517,76.3671,21.0443,222.6357,0,U,28924,999,5246,0,.17E-6,0
ECHOSTAR 10,2006-003A,2026-06-30T16:58:24.303936,1.00272244,.0001902,0.0360,305.1442,114.9613,3.0802,0,U,28935,999,7459,0,-.45E-6,0
SPAINSAT,2006-007A,2026-06-30T07:27:23.167584,1.00270569,.0005099,0.5957,86.3392,11.8989,261.8144,0,U,28945,999,7435,0,-.207E-5,0
JCSAT-5A,2006-010A,2026-06-30T19:50:13.443072,1.00269957,.0002214,1.1434,84.0933,8.3698,256.0206,0,U,29045,999,7390,0,-.318E-5,0
ASTRA 1KR,2006-012A,2026-06-30T19:18:00.053856,1.00270825,.0003775,0.5074,83.2296,8.8104,135.3201,0,U,29055,999,4583,0,.129E-5,0
GALAXY 16 (G-16),2006-023A,2026-06-30T14:19:21.410976,1.00273181,.000276,0.0088,67.2795,26.4720,300.7511,0,U,29236,999,7310,0,-.116E-5,0
EUTELSAT 33F,2006-032A,2026-06-30T19:21:59.672160,1.00272093,.0003757,1.6951,82.1040,15.3403,144.9914,0,U,29270,999,4744,0,.165E-5,0
